TDRS 3                  
1 19548U 88091B   24023.74556747 -.00000298  00000+0  00000+0 0  9997
2 19548  13.2743 346.9487 0040970 336.1611  19.0276  1.00274245116605
HST                     
1 20580U 90037B   24022.97129220  .00006258  00000+0  31046-3 0  9993
2 20580  28.4672 243.1365 0002223 244.1327 115.9035 15.15655275654812
TDRS 5                  
1 21639U 91054B   24023.65410208  .00000084  00000+0  00000+0 0  9997
2 21639  14.1811   0.1883 0025825 354.0177 196.4486  1.00271351118938
TDRS 6                  
1 22314U 93003B   24024.31898719 -.00000297  00000+0  00000+0 0  9992
2 22314  14.1578   3.4753 0006719 159.3997  29.1167  1.00266781113606
TDRS 7                  
1 23613U 95035B   24024.50065002 -.00000201  00000+0  00000+0 0  9999
2 23613  13.7417 354.2520 0023549  59.6656 334.3862  1.00277323104381
ISS (ZARYA)             
1 25544U 98067A   24024.30477502  .00027907  00000+0  49769-3 0  9992
2 25544  51.6419 313.2651 0004862 125.7509  18.8175 15.49851456436087
LANDSAT 7               
1 25682U 99020A   24024.47153563  .00000915  00000+0  19794-3 0  9996
2 25682  97.9052  57.9900 0001668  88.3089  17.5174 14.60432308318079
TERRA                   
1 25994U 99068A   24024.45340091  .00001027  00000+0  22552-3 0  9997
2 25994  98.0688  92.0922 0003119  94.7776 354.3089 14.59554856282059
TDRS 8                  
1 26388U 00034A   24023.72189729  .00000091  00000+0  00000+0 0  9998
2 26388  11.3065  38.3735 0005075 245.7364 290.5747  1.00274844 86392
TIMED                   
1 26998U 01055B   24023.91808272  .00002584  00000+0  26731-3 0  9993
2 26998  74.0705 191.7059 0002268 271.5514  88.5408 14.90657657200313
TDRS 9                  
1 27389U 02011A   24023.82797799 -.00000157  00000+0  00000+0 0  9994
2 27389  10.2883  55.1878 0002218 143.3304 228.3170  0.98983942 81619
AQUA                    
1 27424U 02022A   24024.48001576  .00002098  00000+0  45894-3 0  9999
2 27424  98.3142 333.5163 0001053 113.6128 359.1829 14.58795016155614
TDRS 10                 
1 27566U 02055A   24023.79273378  .00000083  00000+0  00000+0 0  9994
2 27566   9.2878  46.3976 0005459 301.7904 248.6283  1.00271491 77455
SORCE                   
1 27651U 03004A   24023.74641078  .00004645  00000+0  44226-3 0  9995
2 27651  39.9917 181.2239 0021001 285.9094  73.9382 14.93747331140502
AURA                    
1 28376U 04026A   24023.91691224  .00001790  00000+0  39835-3 0  9990
2 28376  98.2361 329.9532 0001496  98.5293 261.6076 14.58138121 38504
SWIFT                   
1 28485U 04047A   24022.58943731  .00012619  00000+0  62767-3 0  9991
2 28485  20.5555 147.3921 0008979 182.7902 177.2485 15.15081182 51888
THEMIS A                
1 30580U 07004A   24023.61714912 -.00000053  00000+0  92765-1 0  9997
2 30580  10.8349 277.2150 8314780 293.1032 327.4914  0.87833331 33572
THEMIS D                
1 30797U 07004D   24023.69949752 -.00000098  00000+0  00000+0 0  9995
2 30797   7.1263 269.8209 8293802 304.0665 340.7130  0.87834371 33374
THEMIS E                
1 30798U 07004E   24023.61943775 -.00000077  00000+0  00000+0 0  9994
2 30798   8.4079 288.8735 8293546 286.5582 332.0028  0.87832142 58210
AIM                     
1 31304U 07015A   24023.83769284  .00049003  00000+0  10561-2 0  9992
2 31304  97.8912 345.0180 0005897 115.5211 244.6646 15.44422335920551
FGRST (GLAST)           
1 33053U 08029A   24023.52102397  .00005071  00000+0  24344-3 0  9995
2 33053  25.5825 128.6930 0011661 133.9920 226.1579 15.15614591862448
WISE                    
1 36119U 09071A   24023.66241482  .00029644  00000+0  49552-3 0  9993
2 36119  97.1710  59.6299 0001220  32.2044 327.9284 15.51869396785599
TDRS 11                 
1 39070U 13004A   24024.07867517  .00000079  00000+0  00000+0 0  9994
2 39070   2.6985   6.3452 0002903  27.8318 302.7148  1.00266228 40213
TDRS 12                 
1 39504U 14004A   24023.46062019 -.00000265  00000+0  00000+0 0  9991
2 39504   3.5561 359.8561 0002828 244.5390   2.7518  1.00266822 35498
GPM-CORE                
1 39574U 14009C   24024.47282795  .00024633  00000+0  53425-3 0  9997
2 39574  64.9896 357.3693 0012275 262.8366  97.1379 15.44291104562727
MMS 1                   
1 40482U 15011A   24024.41668981 -.00002527  00000+0  00000+0 0  9996
2 40482  38.9075  25.2236 9167995 134.3047  94.5810  0.28413620 14963
MMS 2                   
1 40483U 15011B   24024.41668981 -.00002527  00000+0  00000+0 0  9997
2 40483  38.9043  25.2416 9167414 134.2860  94.6024  0.28413845 14942
MMS 3                   
1 40484U 15011C   24024.41668981 -.00002527  00000+0  00000+0 0  9998
2 40484  38.9016  25.2345 9166832 134.2957  94.5870  0.28413650 14946
MMS 4                   
1 40485U 15011D   24024.41668981 -.00002528  00000+0  00000+0 0  9990
2 40485  38.9054  25.2217 9167984 134.2938  94.6328  0.28416774 14944
TDRS 13                 
1 42915U 17047A   24024.11104764 -.00000093  00000+0  00000+0 0  9997
2 42915   3.7647 341.7126 0011880 111.9874  57.6541  1.00272264 23606
JPSS-1                  
1 43013U 17073A   24024.44359728  .00000203  00000+0  11700-3 0  9999
2 43013  98.7358 324.5771 0000843 117.3853 242.7409 14.19537331320364
